[{"OBJECT_NAME":"NEXSAT-1","OBJECT_ID":"2024-024E","EPOCH":"2026-03-09T22:47:24.778176","MEAN_MOTION":15.32166372,"ECCENTRICITY":0.00099795,"INCLINATION":97.3124,"RA_OF_ASC_NODE":144.1918,"ARG_OF_PERICENTER":108.5709,"MEAN_ANOMALY":251.6617,"EPHEMERIS_TYPE":0,"CLASSIFICATION_TYPE":"U","NORAD_CAT_ID":58921,"ELEMENT_SET_NO":999,"REV_AT_EPOCH":11669,"BSTAR":0.00031433612,"MEAN_MOTION_DOT":9.702e-5,"MEAN_MOTION_DDOT":0},{"OBJECT_NAME":"STARLINK-35301","OBJECT_ID":"2025-221W","EPOCH":"2026-03-09T11:44:08.110464","MEAN_MOTION":15.30210089,"ECCENTRICITY":0.00013354,"INCLINATION":53.1586,"RA_OF_ASC_NODE":89.2053,"ARG_OF_PERICENTER":75.1291,"MEAN_ANOMALY":284.9857,"EPHEMERIS_TYPE":0,"CLASSIFICATION_TYPE":"U","NORAD_CAT_ID":65843,"ELEMENT_SET_NO":999,"REV_AT_EPOCH":2470,"BSTAR":0.0010716537,"MEAN_MOTION_DOT":0.00031525,"MEAN_MOTION_DDOT":0}]
